{"type":"FeatureCollection","properties":{"generated":true,"method":"bounded-voronoi-from-centroids","disclaimer":"Simplified, demo-quality district boundaries generated from approximate centroids for visualization purposes only. NOT an authoritative survey/GIS boundary dataset."},"features":[{"type":"Feature","properties":{"id":"agra","name":"Agra","stateId":"uttar-pradesh","division":"Agra","areaUnits":7501.36},"geometry":{"type":"Polygon","coordinates":[[[78.13877458632524,26.262811426787387],[78.22668224299053,27.376308411215206],[77.90212092130498,27.399491362763957],[77.53477425018725,26.98474512117841],[77.76980457803441,26.143376048380993],[78.13877458632524,26.262811426787387]]]}},{"type":"Feature","properties":{"id":"aligarh","name":"Aligarh","stateId":"uttar-pradesh","division":"Aligarh","areaUnits":3541.33},"geometry":{"type":"Polygon","coordinates":[[[77.7939897100097,27.77303554724039],[78.34618067978512,27.715912343470567],[78.41051213872825,28.174273988439197],[78.26268722466953,28.279251101321762],[77.6749999999999,28.014215686274405],[77.6198651099523,27.951513262298725],[77.7939897100097,27.77303554724039]]]}},{"type":"Feature","properties":{"id":"ambedkar-nagar","name":"Ambedkar Nagar","stateId":"uttar-pradesh","division":"Ayodhya","areaUnits":2960.39},"geometry":{"type":"Polygon","coordinates":[[[82.42307514831911,26.06250164798932],[82.70556603773588,26.27111030478946],[82.4765178571438,26.599999999999053],[81.84423076923196,26.599999999998772],[82.42307514831911,26.06250164798932]]]}},{"type":"Feature","properties":{"id":"amethi","name":"Amethi","stateId":"uttar-pradesh","division":"Ayodhya","areaUnits":3226.92},"geometry":{"type":"Polygon","coordinates":[[[81.48668141592916,25.91893173198467],[81.61402309058629,25.832015985790093],[81.98626168224304,26.08971962616844],[81.78446624803803,26.614387755101202],[81.6829596174274,26.67624335812979],[81.66621216348149,26.67883317059552],[81.56894097222226,26.600510912698393],[81.48668141592916,25.91893173198467]]]}},{"type":"Feature","properties":{"id":"amroha","name":"Amroha","stateId":"uttar-pradesh","division":"Moradabad","areaUnits":3371.96},"geometry":{"type":"Polygon","coordinates":[[[78.60497854077252,28.766555793991525],[78.73755387071012,29.451528332002976],[78.09490909090916,28.98663636363676],[78.09125813449013,28.951952277656062],[78.1681385642737,28.63990818030088],[78.17449275362343,28.632028985507215],[78.60497854077252,28.766555793991525]]]}},{"type":"Feature","properties":{"id":"auraiya","name":"Auraiya","stateId":"uttar-pradesh","division":"Kanpur","areaUnits":3780.96},"geometry":{"type":"Polygon","coordinates":[[[79.77016759776505,26.13991620111697],[79.8001273344651,26.177512733446445],[79.80887525267126,26.693639907594665],[79.46601010100996,26.936010101010176],[79.46195661375651,26.93631851851859],[79.15325581395295,26.448372093022613],[79.77016759776505,26.13991620111697]]]}},{"type":"Feature","properties":{"id":"ayodhya","name":"Ayodhya","stateId":"uttar-pradesh","division":"Ayodhya","areaUnits":3387.13},"geometry":{"type":"Polygon","coordinates":[[[82.48588201928541,27.12439307997743],[82.29064315352703,27.118195020747052],[81.6829596174281,26.676243358129426],[81.78446624803684,26.614387755102246],[81.8442307692291,26.600000000000442],[82.4765178571431,26.60000000000027],[82.48588201928541,27.12439307997743]]]}},{"type":"Feature","properties":{"id":"azamgarh","name":"Azamgarh","stateId":"uttar-pradesh","division":"Azamgarh","areaUnits":4455.43},"geometry":{"type":"Polygon","coordinates":[[[83.18351611291523,25.66463527354486],[83.28332312404312,25.74407350689156],[83.4788464782793,26.30056305356382],[83.42369875222825,26.377513368983895],[83.19039340101494,26.438375634517765],[82.86417115177561,26.36381054897733],[82.70856576862118,26.270879556260134],[83.06762415892366,25.69863024671553],[83.18351611291523,25.66463527354486]]]}},{"type":"Feature","properties":{"id":"baghpat","name":"Baghpat","stateId":"uttar-pradesh","division":"Meerut","areaUnits":2634.8},"geometry":{"type":"Polygon","coordinates":[[[76.97492057342117,29.252214296784288],[76.9461,29.0921],[77.07688452207661,28.62391339155767],[77.46792682926811,28.917195121951252],[77.4526805612875,29.16621749896815],[76.97492057342117,29.252214296784288]]]}},{"type":"Feature","properties":{"id":"bahraich","name":"Bahraich","stateId":"uttar-pradesh","division":"Devipatan","areaUnits":6532.91},"geometry":{"type":"Polygon","coordinates":[[[81.13999999999986,27.652105263157488],[81.14000000000014,27.413359375000013],[81.54238072054537,27.155584225900768],[81.72912499999998,27.308374999999955],[81.86085384615394,28.05483846153841],[81.4220475782529,28.260734247808116],[81.13999999999986,27.652105263157488]]]}},{"type":"Feature","properties":{"id":"ballia","name":"Ballia","stateId":"uttar-pradesh","division":"Azamgarh","areaUnits":4650.69},"geometry":{"type":"Polygon","coordinates":[[[83.93526896180761,26.11310381925776],[83.83198275862058,25.774554597700927],[84.00532784111786,25.22562850312595],[84.43050000000001,25.646900000000002],[84.26434069369814,26.27319276990702],[83.93526896180761,26.11310381925776]]]}},{"type":"Feature","properties":{"id":"balrampur","name":"Balrampur","stateId":"uttar-pradesh","division":"Devipatan","areaUnits":4437.52},"geometry":{"type":"Polygon","coordinates":[[[82.01107142857154,27.32321428571455],[82.29064315352676,27.11819502074719],[82.48588201928548,27.12439307997767],[82.62823960880182,27.25340464547664],[82.70655253653487,27.658021438764003],[82.20164446043175,27.89493338129492],[82.01107142857154,27.32321428571455]]]}},{"type":"Feature","properties":{"id":"banda","name":"Banda","stateId":"uttar-pradesh","division":"Chitrakoot","areaUnits":4386.5},"geometry":{"type":"Polygon","coordinates":[[[80.33205122686132,24.82334696513183],[80.71859632531748,25.555021615780596],[80.47389103182259,25.810602700096226],[80.00756782575462,25.626016431027843],[80.33205122686132,24.82334696513183]]]}},{"type":"Feature","properties":{"id":"barabanki","name":"Barabanki","stateId":"uttar-pradesh","division":"Ayodhya","areaUnits":4742.75},"geometry":{"type":"Polygon","coordinates":[[[81.54238072054495,27.15558422590075],[81.13999999999996,27.413359374999956],[80.94685185185189,27.25944444444402],[81.17401869158863,26.577943925233996],[81.56894097222226,26.600510912698386],[81.66621216348175,26.678833170595627],[81.54238072054495,27.15558422590075]]]}},{"type":"Feature","properties":{"id":"bareilly","name":"Bareilly","stateId":"uttar-pradesh","division":"Bareilly","areaUnits":3561.07},"geometry":{"type":"Polygon","coordinates":[[[79.79016466117812,28.24549081697249],[79.42173447537492,28.745503211991174],[79.03498845265597,28.41032332563497],[79.5158562793822,27.959509738079262],[79.79016466117812,28.24549081697249]]]}},{"type":"Feature","properties":{"id":"basti","name":"Basti","stateId":"uttar-pradesh","division":"Basti","areaUnits":3937.61},"geometry":{"type":"Polygon","coordinates":[[[82.91396341463413,27.036006097561145],[82.62823960880203,27.25340464547702],[82.48588201928581,27.12439307997821],[82.47651785714336,26.59999999999926],[82.70556603773599,26.271110304789417],[82.70856576862087,26.270879556259878],[82.86417115177599,26.36381054897753],[82.91396341463413,27.036006097561145]]]}},{"type":"Feature","properties":{"id":"bhadohi","name":"Bhadohi","stateId":"uttar-pradesh","division":"Varanasi","areaUnits":2294.31},"geometry":{"type":"Polygon","coordinates":[[[82.19791666666649,25.265000000000207],[82.75724999999998,25.26500000000007],[82.79468305304005,25.5145536869345],[82.2995143487864,25.66176600441512],[82.22395759717323,25.577491166077447],[82.19791666666649,25.265000000000207]]]}},{"type":"Feature","properties":{"id":"bijnor","name":"Bijnor","stateId":"uttar-pradesh","division":"Moradabad","areaUnits":5085.17},"geometry":{"type":"Polygon","coordinates":[[[78.01175000000075,29.836025000000518],[77.87043633762534,29.228376251788152],[78.09490909090928,28.986636363636176],[78.73755387071051,29.45152833200351],[78.77813965858776,29.501303354872295],[78.02907879794523,29.852776171346832],[78.01175000000075,29.836025000000518]]]}},{"type":"Feature","properties":{"id":"budaun","name":"Budaun","stateId":"uttar-pradesh","division":"Bareilly","areaUnits":4436.84},"geometry":{"type":"Polygon","coordinates":[[[79.213703703703,27.612037037036952],[79.48720568025648,27.808616582684397],[79.51585627938216,27.959509738079838],[79.03498845265665,28.410323325635133],[78.93911764705875,28.39911764705879],[78.74949275362322,28.20949275362309],[78.97041474654418,27.737523041473995],[79.06317073170707,27.630853658536626],[79.213703703703,27.612037037036952]]]}},{"type":"Feature","properties":{"id":"bulandshahr","name":"Bulandshahr","stateId":"uttar-pradesh","division":"Meerut","areaUnits":3052.7},"geometry":{"type":"Polygon","coordinates":[[[77.67499999999978,28.535303030302995],[77.67499999999987,28.014215686274568],[78.2626872246695,28.27925110132207],[78.17449275362313,28.632028985507617],[78.16813856427407,28.63990818030045],[77.67499999999978,28.535303030302995]]]}},{"type":"Feature","properties":{"id":"chandauli","name":"Chandauli","stateId":"uttar-pradesh","division":"Varanasi","areaUnits":3941.55},"geometry":{"type":"Polygon","coordinates":[[[83.19128272251336,25.64641361256512],[83.06336012861735,25.006800643086727],[83.59148546708735,24.81558284812326],[83.81762337966326,25.039646100950762],[83.19128272251336,25.64641361256512]]]}},{"type":"Feature","properties":{"id":"chitrakoot","name":"Chitrakoot","stateId":"uttar-pradesh","division":"Chitrakoot","areaUnits":11490.57},"geometry":{"type":"Polygon","coordinates":[[[81.48537313432858,24.808059701491764],[80.98773144605951,25.577142310634784],[80.71859632531745,25.555021615779303],[80.33205122686162,24.82334696513045],[80.30176626459381,24.486847384377217],[81.56470251613727,24.484131392438414],[81.48537313432858,24.808059701491764]]]}},{"type":"Feature","properties":{"id":"deoria","name":"Deoria","stateId":"uttar-pradesh","division":"Gorakhpur","areaUnits":3650.09},"geometry":{"type":"Polygon","coordinates":[[[83.62839116719243,26.70817034700335],[83.4236987522279,26.377513368983887],[83.47884647827875,26.30056305356407],[83.93526896180786,26.113103819257386],[84.26434069369814,26.27319276990702],[84.21363365200767,26.464319311663395],[83.62839116719243,26.70817034700335]]]}},{"type":"Feature","properties":{"id":"etah","name":"Etah","stateId":"uttar-pradesh","division":"Aligarh","areaUnits":2486.4},"geometry":{"type":"Polygon","coordinates":[[[78.35066757493199,27.703092643051793],[78.36157894736857,27.48122807017568],[78.69578034682097,27.30020231213883],[79.06317073170712,27.630853658536406],[78.9704147465434,27.73752304147467],[78.35066757493199,27.703092643051793]]]}},{"type":"Feature","properties":{"id":"etawah","name":"Etawah","stateId":"uttar-pradesh","division":"Kanpur","areaUnits":6854.42},"geometry":{"type":"Polygon","coordinates":[[[78.62643695014631,26.172419354838482],[79.15325581395358,26.448372093023202],[79.46195661375732,26.93631851851938],[79.38714285714423,27.0049999999999],[78.73387096774178,27.004999999999587],[78.30121632570372,26.2800111403685],[78.62643695014631,26.172419354838482]]]}},{"type":"Feature","properties":{"id":"farrukhabad","name":"Farrukhabad","stateId":"uttar-pradesh","division":"Kanpur","areaUnits":4235.79},"geometry":{"type":"Polygon","coordinates":[[[79.85913793103444,27.329137931034662],[79.8461710323575,27.56686440677955],[79.48720568025632,27.808616582684312],[79.21370370370389,27.612037037037283],[79.3871428571429,27.005000000000223],[79.46195661375651,26.93631851851887],[79.46601010101034,26.936010101010424],[79.85913793103444,27.329137931034662]]]}},{"type":"Feature","properties":{"id":"fatehpur","name":"Fatehpur","stateId":"uttar-pradesh","division":"Allahabad","areaUnits":4491.59},"geometry":{"type":"Polygon","coordinates":[[[80.83861158432715,26.333943781942093],[80.57761075949327,26.197025316455438],[80.4876824817521,26.114014598540567],[80.47389103182284,25.810602700096496],[80.7185963253173,25.555021615780127],[80.98773144605975,25.577142310635274],[81.18172566371675,25.85358407079623],[80.83861158432715,26.333943781942093]]]}},{"type":"Feature","properties":{"id":"firozabad","name":"Firozabad","stateId":"uttar-pradesh","division":"Agra","areaUnits":5561.61},"geometry":{"type":"Polygon","coordinates":[[[78.3012163257041,26.280011140368668],[78.73387096774215,27.004999999999658],[78.69578034682068,27.300202312138925],[78.36157894736841,27.481228070175355],[78.2266822429895,27.376308411213667],[78.13877458632493,26.262811426786836],[78.3012163257041,26.280011140368668]]]}},{"type":"Feature","properties":{"id":"gautam-buddha-nagar","name":"Gautam Buddha Nagar","stateId":"uttar-pradesh","division":"Meerut","areaUnits":3509.74},"geometry":{"type":"Polygon","coordinates":[[[77.67500000000017,28.535303030302842],[77.6261246200607,28.57677304964545],[77.1262545196596,28.4471770976892],[77.28232889994855,27.888457047243],[77.6198651099517,27.951513262298626],[77.67500000000003,28.014215686275143],[77.67500000000017,28.535303030302842]]]}},{"type":"Feature","properties":{"id":"ghaziabad","name":"Ghaziabad","stateId":"uttar-pradesh","division":"Meerut","areaUnits":1833.33},"geometry":{"type":"Polygon","coordinates":[[[77.62612462006093,28.576773049645332],[77.58605779716484,28.8104961832061],[77.4679268292681,28.917195121951075],[77.07688452207672,28.623913391557288],[77.12625451965954,28.447177097689398],[77.62612462006093,28.576773049645332]]]}},{"type":"Feature","properties":{"id":"ghazipur","name":"Ghazipur","stateId":"uttar-pradesh","division":"Varanasi","areaUnits":4050.55},"geometry":{"type":"Polygon","coordinates":[[[83.83198275862091,25.77455459770151],[83.28332312404306,25.744073506891404],[83.18351611291537,25.664635273544864],[83.19128272251295,25.64641361256557],[83.81762337966379,25.039646100951273],[84.00532784111756,25.225628503125655],[83.83198275862091,25.77455459770151]]]}},{"type":"Feature","properties":{"id":"gonda","name":"Gonda","stateId":"uttar-pradesh","division":"Devipatan","areaUnits":3353.43},"geometry":{"type":"Polygon","coordinates":[[[82.01107142857195,27.323214285714343],[81.72912499999939,27.308374999999856],[81.54238072054498,27.155584225900714],[81.66621216348165,26.678833170595073],[81.68295961742766,26.67624335812919],[82.29064315352743,27.118195020746878],[82.01107142857195,27.323214285714343]]]}},{"type":"Feature","properties":{"id":"gorakhpur","name":"Gorakhpur","stateId":"uttar-pradesh","division":"Gorakhpur","areaUnits":2637.6},"geometry":{"type":"Polygon","coordinates":[[[83.29857326478125,27.036079691516736],[83.20653658536574,26.987243902438923],[83.1903934010151,26.4383756345182],[83.42369875222865,26.377513368984214],[83.62839116719243,26.70817034700289],[83.63470474346566,26.872323330106518],[83.29857326478125,27.036079691516736]]]}},{"type":"Feature","properties":{"id":"hamirpur","name":"Hamirpur","stateId":"uttar-pradesh","division":"Chitrakoot","areaUnits":4425.6},"geometry":{"type":"Polygon","coordinates":[[[79.68057196198217,25.762671418872955],[80.00756782575415,25.626016431027917],[80.47389103182329,25.81060270009707],[80.48768248175236,26.114014598540134],[80.20469432314417,26.2179694323143],[79.8001273344654,26.177512733446687],[79.7701675977651,26.13991620111691],[79.68057196198217,25.762671418872955]]]}},{"type":"Feature","properties":{"id":"hapur","name":"Hapur","stateId":"uttar-pradesh","division":"Meerut","areaUnits":1991.65},"geometry":{"type":"Polygon","coordinates":[[[77.58605779716473,28.810496183206123],[77.62612462006079,28.576773049645478],[77.67500000000004,28.535303030303005],[78.16813856427378,28.639908180300548],[78.09125813449045,28.951952277657238],[77.58605779716473,28.810496183206123]]]}},{"type":"Feature","properties":{"id":"hardoi","name":"Hardoi","stateId":"uttar-pradesh","division":"Lucknow","areaUnits":3743},"geometry":{"type":"Polygon","coordinates":[[[80.48083656080556,27.049887683965903],[80.51355670103092,27.096958762886523],[80.32318181818167,27.794999999999735],[79.84617103235774,27.566864406779718],[79.85913793103464,27.329137931034744],[80.4054716981139,27.019056603773617],[80.48083656080556,27.049887683965903]]]}},{"type":"Feature","properties":{"id":"hathras","name":"Hathras","stateId":"uttar-pradesh","division":"Aligarh","areaUnits":2139},"geometry":{"type":"Polygon","coordinates":[[[78.36157894736802,27.481228070175273],[78.35066757493176,27.70309264305204],[78.34618067978488,27.715912343471157],[77.7939897100091,27.77303554724104],[77.90212092130514,27.399491362763804],[78.22668224299085,27.37630841121483],[78.36157894736802,27.481228070175273]]]}},{"type":"Feature","properties":{"id":"jalaun","name":"Jalaun","stateId":"uttar-pradesh","division":"Jhansi","areaUnits":7563.27},"geometry":{"type":"Polygon","coordinates":[[[79.24071623465206,25.496712141882853],[79.68057196198237,25.7626714188733],[79.77016759776532,26.13991620111681],[79.1532558139532,26.448372093022723],[78.62643695014714,26.172419354838905],[79.24071623465206,25.496712141882853]]]}},{"type":"Feature","properties":{"id":"jaunpur","name":"Jaunpur","stateId":"uttar-pradesh","division":"Varanasi","areaUnits":4225.63},"geometry":{"type":"Polygon","coordinates":[[[82.37382488479281,26.003594470046366],[82.29951434878602,25.661766004414655],[82.79468305304007,25.514553686934047],[83.067624158923,25.698630246715823],[82.70856576862056,26.270879556260123],[82.70556603773623,26.271110304789453],[82.42307514831803,26.0625016479883],[82.37382488479281,26.003594470046366]]]}},{"type":"Feature","properties":{"id":"jhansi","name":"Jhansi","stateId":"uttar-pradesh","division":"Jhansi","areaUnits":16231.11},"geometry":{"type":"Polygon","coordinates":[[[79.1690889241767,24.919216951171105],[79.24071623465227,25.496712141882618],[78.62643695014653,26.172419354838766],[78.30121632570405,26.28001114036853],[78.13877458632321,26.26281142678721],[77.76980457803428,26.143376048381448],[78.04129479787808,25.171486689949003],[79.1690889241767,24.919216951171105]]]}},{"type":"Feature","properties":{"id":"kannauj","name":"Kannauj","stateId":"uttar-pradesh","division":"Kanpur","areaUnits":4023.41},"geometry":{"type":"Polygon","coordinates":[[[80.4054716981131,27.019056603773734],[79.85913793103481,27.32913793103505],[79.46601010100942,26.936010101009867],[79.80887525267076,26.693639907594335],[80.22898773006135,26.821809815950793],[80.4054716981131,27.019056603773734]]]}},{"type":"Feature","properties":{"id":"kanpur-dehat","name":"Kanpur Dehat","stateId":"uttar-pradesh","division":"Kanpur","areaUnits":2835},"geometry":{"type":"Polygon","coordinates":[[[80.2046943231439,26.217969432314465],[80.23060538116613,26.8139237668151],[80.22898773006139,26.82180981595101],[79.80887525267127,26.693639907594736],[79.80012733446542,26.177512733446882],[80.2046943231439,26.217969432314465]]]}},{"type":"Feature","properties":{"id":"kanpur-nagar","name":"Kanpur Nagar","stateId":"uttar-pradesh","division":"Kanpur","areaUnits":1574.77},"geometry":{"type":"Polygon","coordinates":[[[80.23060538116592,26.813923766816032],[80.20469432314415,26.21796943231433],[80.48768248175217,26.114014598539978],[80.57761075949382,26.1970253164553],[80.23060538116592,26.813923766816032]]]}},{"type":"Feature","properties":{"id":"kasganj","name":"Kasganj","stateId":"uttar-pradesh","division":"Aligarh","areaUnits":2837.55},"geometry":{"type":"Polygon","coordinates":[[[78.3506675749319,27.70309264305195],[78.97041474654384,27.737523041474887],[78.74949275362323,28.209492753623078],[78.41051213872744,28.17427398843935],[78.34618067978488,27.715912343471793],[78.3506675749319,27.70309264305195]]]}},{"type":"Feature","properties":{"id":"kaushambi","name":"Kaushambi","stateId":"uttar-pradesh","division":"Allahabad","areaUnits":5115.48},"geometry":{"type":"Polygon","coordinates":[[[81.6652709790209,25.747526223776347],[81.61402309058693,25.832015985789084],[81.48668141592815,25.918931731984706],[81.18172566371678,25.853584070796355],[80.98773144606008,25.577142310634976],[81.48537313432847,24.808059701492816],[81.6652709790209,25.747526223776347]]]}},{"type":"Feature","properties":{"id":"lakhimpur-kheri","name":"Lakhimpur Kheri","stateId":"uttar-pradesh","division":"Lucknow","areaUnits":8930.11},"geometry":{"type":"Polygon","coordinates":[[[80.31224780369583,28.322063011208517],[80.34941285537714,27.860154511742856],[81.1399999999996,27.652105263157818],[81.42204757825233,28.260734247808386],[80.55272653636301,28.668635302405374],[80.31224780369583,28.322063011208517]]]}},{"type":"Feature","properties":{"id":"kushinagar","name":"Kushinagar","stateId":"uttar-pradesh","division":"Gorakhpur","areaUnits":2127.45},"geometry":{"type":"Polygon","coordinates":[[[83.63470474346535,26.872323330106344],[83.62839116719208,26.70817034700327],[84.2136336520076,26.464319311663633],[84.1497,26.705299999999998],[83.86565220216612,27.058207870036032],[83.63470474346535,26.872323330106344]]]}},{"type":"Feature","properties":{"id":"lalitpur","name":"Lalitpur","stateId":"uttar-pradesh","division":"Jhansi","areaUnits":7382.71},"geometry":{"type":"Polygon","coordinates":[[[79.16908892417558,24.91921695117138],[78.0412947978782,25.17148668994862],[78.23129999999999,24.491300000000003],[79.34593029632885,24.488902945599293],[79.16908892417558,24.91921695117138]]]}},{"type":"Feature","properties":{"id":"lucknow","name":"Lucknow","stateId":"uttar-pradesh","division":"Lucknow","areaUnits":3733.5},"geometry":{"type":"Polygon","coordinates":[[[80.88641666666649,26.44805913978488],[81.17401869158864,26.577943925233097],[80.94685185185172,27.259444444444203],[80.51355670103135,27.096958762886825],[80.48083656080566,27.0498876839657],[80.88641666666649,26.44805913978488]]]}},{"type":"Feature","properties":{"id":"maharajganj","name":"Maharajganj","stateId":"uttar-pradesh","division":"Gorakhpur","areaUnits":1843.87},"geometry":{"type":"Polygon","coordinates":[[[83.29857326478154,27.036079691516584],[83.63470474346572,26.872323330106376],[83.8656522021661,27.05820787003606],[83.7933,27.1481],[83.36783063787074,27.347737870416726],[83.29857326478154,27.036079691516584]]]}},{"type":"Feature","properties":{"id":"mahoba","name":"Mahoba","stateId":"uttar-pradesh","division":"Chitrakoot","areaUnits":14096.58},"geometry":{"type":"Polygon","coordinates":[[[80.33205122686162,24.82334696513249],[80.00756782575488,25.62601643102746],[79.68057196198247,25.762671418873023],[79.24071623465152,25.49671214188233],[79.16908892417614,24.919216951171123],[79.34593029632872,24.488902945599293],[80.30176626459331,24.486847384377217],[80.33205122686162,24.82334696513249]]]}},{"type":"Feature","properties":{"id":"mainpuri","name":"Mainpuri","stateId":"uttar-pradesh","division":"Agra","areaUnits":3807.3},"geometry":{"type":"Polygon","coordinates":[[[79.21370370370352,27.612037037037148],[79.06317073170781,27.63085365853661],[78.695780346821,27.30020231213848],[78.7338709677416,27.004999999999797],[79.38714285714263,27.004999999999683],[79.21370370370352,27.612037037037148]]]}},{"type":"Feature","properties":{"id":"mathura","name":"Mathura","stateId":"uttar-pradesh","division":"Agra","areaUnits":4229.47},"geometry":{"type":"Polygon","coordinates":[[[77.79398971000985,27.77303554723891],[77.61986510995165,27.95151326229871],[77.28232889994841,27.88845704724352],[77.5347742501867,26.984745121180378],[77.90212092130477,27.39949136276433],[77.79398971000985,27.77303554723891]]]}},{"type":"Feature","properties":{"id":"mau","name":"Mau","stateId":"uttar-pradesh","division":"Azamgarh","areaUnits":2915.44},"geometry":{"type":"Polygon","coordinates":[[[83.47884647827902,26.300563053563696],[83.2833231240427,25.744073506891123],[83.83198275862063,25.774554597701364],[83.93526896180715,26.11310381925724],[83.47884647827902,26.300563053563696]]]}},{"type":"Feature","properties":{"id":"meerut","name":"Meerut","stateId":"uttar-pradesh","division":"Meerut","areaUnits":2360.6},"geometry":{"type":"Polygon","coordinates":[[[77.87043633762465,29.228376251788198],[77.51724777835858,29.22116832200727],[77.45268056128742,29.166217498967892],[77.467926829268,28.917195121951373],[77.58605779716451,28.810496183206176],[78.0912581344895,28.95195227765703],[78.09490909090837,28.98663636363652],[77.87043633762465,29.228376251788198]]]}},{"type":"Feature","properties":{"id":"mirzapur","name":"Mirzapur","stateId":"uttar-pradesh","division":"Mirzapur","areaUnits":6395.76},"geometry":{"type":"Polygon","coordinates":[[[82.87805934389998,24.980742720235984],[82.75724999999984,25.265000000000203],[82.19791666666698,25.26500000000022],[81.88312433077695,24.483446614342412],[82.39999485809406,24.482335064821303],[82.87805934389998,24.980742720235984]]]}},{"type":"Feature","properties":{"id":"moradabad","name":"Moradabad","stateId":"uttar-pradesh","division":"Moradabad","areaUnits":2742.32},"geometry":{"type":"Polygon","coordinates":[[[78.73755387071269,29.451528332006454],[78.60497854077373,28.766555793990776],[78.86309264305176,28.55807901907325],[78.99753728719116,29.39835804494524],[78.7781396585883,29.501303354872043],[78.73755387071269,29.451528332006454]]]}},{"type":"Feature","properties":{"id":"muzaffarnagar","name":"Muzaffarnagar","stateId":"uttar-pradesh","division":"Saharanpur","areaUnits":2804.73},"geometry":{"type":"Polygon","coordinates":[[[77.49368686868657,29.680606060606003],[77.5172477783586,29.2211683220073],[77.87043633762546,29.22837625178831],[78.01175000000046,29.836025000000014],[77.49368686868657,29.680606060606003]]]}},{"type":"Feature","properties":{"id":"pilibhit","name":"Pilibhit","stateId":"uttar-pradesh","division":"Bareilly","areaUnits":7218.72},"geometry":{"type":"Polygon","coordinates":[[[79.42173447537479,28.74550321199124],[79.79016466117767,28.24549081697306],[80.31224780369602,28.32206301120899],[80.55272653636295,28.668635302405406],[79.51252213389255,29.156717900569554],[79.42173447537479,28.74550321199124]]]}},{"type":"Feature","properties":{"id":"pratapgarh","name":"Pratapgarh","stateId":"uttar-pradesh","division":"Allahabad","areaUnits":3006.51},"geometry":{"type":"Polygon","coordinates":[[[81.66527097902078,25.747526223776102],[82.22395759717298,25.57749116607762],[82.29951434878613,25.66176600441539],[82.3738248847927,26.003594470046153],[81.98626168224243,26.08971962616838],[81.61402309058576,25.832015985790502],[81.66527097902078,25.747526223776102]]]}},{"type":"Feature","properties":{"id":"prayagraj","name":"Prayagraj","stateId":"uttar-pradesh","division":"Allahabad","areaUnits":7899.99},"geometry":{"type":"Polygon","coordinates":[[[82.19791666666723,25.265000000001645],[82.2239575971734,25.577491166077483],[81.66527097902083,25.747526223776728],[81.4853731343282,24.80805970149288],[81.56470251613739,24.484131392438414],[81.88312433077704,24.483446614342416],[82.19791666666723,25.265000000001645]]]}},{"type":"Feature","properties":{"id":"raebareli","name":"Raebareli","stateId":"uttar-pradesh","division":"Lucknow","areaUnits":4682.98},"geometry":{"type":"Polygon","coordinates":[[[81.17401869158888,26.577943925233733],[80.88641666666655,26.448059139784895],[80.83861158432724,26.33394378194243],[81.18172566371695,25.853584070796586],[81.48668141592938,25.91893173198523],[81.5689409722223,26.60051091269871],[81.17401869158888,26.577943925233733]]]}},{"type":"Feature","properties":{"id":"rampur","name":"Rampur","stateId":"uttar-pradesh","division":"Moradabad","areaUnits":4982.46},"geometry":{"type":"Polygon","coordinates":[[[78.8630926430517,28.55807901907333],[78.93911764705881,28.399117647058958],[79.03498845265692,28.410323325635456],[79.42173447537462,28.745503211990744],[79.51252213389174,29.156717900569934],[78.99753728719116,29.398358044945244],[78.8630926430517,28.55807901907333]]]}},{"type":"Feature","properties":{"id":"saharanpur","name":"Saharanpur","stateId":"uttar-pradesh","division":"Saharanpur","areaUnits":2855.47},"geometry":{"type":"Polygon","coordinates":[[[77.49368686868699,29.68060606060604],[78.01175000000067,29.83602500000009],[78.02907879794549,29.852776171346708],[77.3025,30.1937],[77.14084829268299,29.843454634146486],[77.49368686868699,29.68060606060604]]]}},{"type":"Feature","properties":{"id":"sambhal","name":"Sambhal","stateId":"uttar-pradesh","division":"Moradabad","areaUnits":3843.16},"geometry":{"type":"Polygon","coordinates":[[[78.74949275362326,28.2094927536232],[78.9391176470588,28.399117647058706],[78.86309264305187,28.55807901907353],[78.60497854077313,28.76655579399065],[78.17449275362381,28.63202898550655],[78.26268722466972,28.27925110132188],[78.41051213872878,28.174273988439417],[78.74949275362326,28.2094927536232]]]}},{"type":"Feature","properties":{"id":"sant-kabir-nagar","name":"Sant Kabir Nagar","stateId":"uttar-pradesh","division":"Basti","areaUnits":2322.16},"geometry":{"type":"Polygon","coordinates":[[[82.91396341463417,27.03600609756086],[82.86417115177562,26.363810548976883],[83.19039340101534,26.438375634517612],[83.20653658536587,26.987243902439246],[82.91396341463417,27.03600609756086]]]}},{"type":"Feature","properties":{"id":"shahjahanpur","name":"Shahjahanpur","stateId":"uttar-pradesh","division":"Bareilly","areaUnits":5484.67},"geometry":{"type":"Polygon","coordinates":[[[80.34941285537705,27.860154511743158],[80.31224780369591,28.32206301120894],[79.79016466117794,28.245490816972623],[79.51585627938265,27.959509738079692],[79.48720568025686,27.808616582683936],[79.84617103235686,27.56686440677979],[80.32318181818198,27.795000000000393],[80.34941285537705,27.860154511743158]]]}},{"type":"Feature","properties":{"id":"shamli","name":"Shamli","stateId":"uttar-pradesh","division":"Saharanpur","areaUnits":3317.3},"geometry":{"type":"Polygon","coordinates":[[[76.97492057342119,29.252214296784366],[77.45268056128774,29.166217498968376],[77.51724777835848,29.221168322007212],[77.49368686868671,29.680606060606436],[77.14084829268299,29.843454634146486],[77.0433,29.6321],[76.97492057342119,29.252214296784366]]]}},{"type":"Feature","properties":{"id":"shravasti","name":"Shravasti","stateId":"uttar-pradesh","division":"Devipatan","areaUnits":2672.54},"geometry":{"type":"Polygon","coordinates":[[[81.7291250000004,27.308375000000392],[82.01107142857155,27.323214285714226],[82.20164446043175,27.894933381294923],[81.8608538461533,28.05483846153872],[81.7291250000004,27.308375000000392]]]}},{"type":"Feature","properties":{"id":"siddharthnagar","name":"Siddharthnagar","stateId":"uttar-pradesh","division":"Basti","areaUnits":3808.67},"geometry":{"type":"Polygon","coordinates":[[[82.62823960880203,27.253404645476888],[82.91396341463447,27.036006097560946],[83.20653658536598,26.987243902439065],[83.2985732647815,27.0360796915166],[83.36783063787001,27.34773787041706],[82.70655253653484,27.658021438764017],[82.62823960880203,27.253404645476888]]]}},{"type":"Feature","properties":{"id":"sitapur","name":"Sitapur","stateId":"uttar-pradesh","division":"Lucknow","areaUnits":4834.79},"geometry":{"type":"Polygon","coordinates":[[[80.34941285537667,27.86015451174304],[80.32318181818177,27.79500000000018],[80.51355670103122,27.096958762886352],[80.9468518518512,27.259444444444117],[81.14,27.413359374999988],[81.13999999999997,27.652105263157882],[80.34941285537667,27.86015451174304]]]}},{"type":"Feature","properties":{"id":"sonbhadra","name":"Sonbhadra","stateId":"uttar-pradesh","division":"Mirzapur","areaUnits":4745.29},"geometry":{"type":"Polygon","coordinates":[[[83.06336012861748,25.00680064308698],[82.87805934389982,24.980742720236133],[82.3999948580939,24.482335064821303],[83.2533,24.4805],[83.59148546708742,24.815582848123324],[83.06336012861748,25.00680064308698]]]}},{"type":"Feature","properties":{"id":"sultanpur","name":"Sultanpur","stateId":"uttar-pradesh","division":"Ayodhya","areaUnits":1691.41},"geometry":{"type":"Polygon","coordinates":[[[82.37382488479223,26.00359447004603],[82.42307514831859,26.06250164798935],[81.84423076923021,26.600000000000072],[81.78446624803843,26.61438775510215],[81.98626168224361,26.08971962616825],[82.37382488479223,26.00359447004603]]]}},{"type":"Feature","properties":{"id":"unnao","name":"Unnao","stateId":"uttar-pradesh","division":"Lucknow","areaUnits":3443.28},"geometry":{"type":"Polygon","coordinates":[[[80.23060538116594,26.81392376681598],[80.57761075949364,26.19702531645584],[80.83861158432728,26.333943781942587],[80.8864166666666,26.448059139785325],[80.48083656080573,27.049887683965693],[80.40547169811272,27.019056603773155],[80.22898773006132,26.821809815951028],[80.23060538116594,26.81392376681598]]]}},{"type":"Feature","properties":{"id":"varanasi","name":"Varanasi","stateId":"uttar-pradesh","division":"Varanasi","areaUnits":2572.27},"geometry":{"type":"Polygon","coordinates":[[[82.87805934389954,24.980742720235785],[83.0633601286173,25.006800643086912],[83.19128272251301,25.64641361256551],[83.18351611291509,25.66463527354523],[83.06762415892362,25.698630246716036],[82.79468305304037,25.514553686934626],[82.75725,25.264999999999553],[82.87805934389954,24.980742720235785]]]}}]}