{"type":"FeatureCollection","properties":{"generated":true,"disclaimer":"Simplified convex-hull approximation of the Uttar Pradesh outline, for demo visualization only."},"features":[{"type":"Feature","properties":{"id":"uttar-pradesh","name":"Uttar Pradesh"},"geometry":{"type":"Polygon","coordinates":[[[76.9461,29.0921],[78.23129999999999,24.491300000000003],[83.2533,24.4805],[84.43050000000001,25.646900000000002],[84.1497,26.705299999999998],[83.7933,27.1481],[77.3025,30.1937],[77.0433,29.6321],[76.9461,29.0921]]]}}]}